PHISAT 2                
1 60470U 24149C   26068.78834181  .00008925  00000+0  31421-3 0  9996
2 60470  97.3806 148.6498 0001175 168.6230 191.5037 15.29548631 86792
STARLINK-34553          
1 64681U 25139T   26068.66132510  .00031642  00000+0  10760-2 0  9992
2 64681  53.1580 126.8904 0001332  73.3241 286.7905 15.30197010 40286
