[{"OBJECT_NAME":"PHISAT 2","OBJECT_ID":"2024-149C","EPOCH":"2026-03-09T18:55:12.732384","MEAN_MOTION":15.29548632,"ECCENTRICITY":0.00011753,"INCLINATION":97.3806,"RA_OF_ASC_NODE":148.6498,"ARG_OF_PERICENTER":168.623,"MEAN_ANOMALY":191.5037,"EPHEMERIS_TYPE":0,"CLASSIFICATION_TYPE":"U","NORAD_CAT_ID":60470,"ELEMENT_SET_NO":999,"REV_AT_EPOCH":8679,"BSTAR":0.00031420974,"MEAN_MOTION_DOT":8.925e-5,"MEAN_MOTION_DDOT":0},{"OBJECT_NAME":"STARLINK-34553","OBJECT_ID":"2025-139T","EPOCH":"2026-03-09T15:52:18.489504","MEAN_MOTION":15.3019701,"ECCENTRICITY":0.00013324,"INCLINATION":53.158,"RA_OF_ASC_NODE":126.8904,"ARG_OF_PERICENTER":73.3241,"MEAN_ANOMALY":286.7905,"EPHEMERIS_TYPE":0,"CLASSIFICATION_TYPE":"U","NORAD_CAT_ID":64681,"ELEMENT_SET_NO":999,"REV_AT_EPOCH":4028,"BSTAR":0.0010760246,"MEAN_MOTION_DOT":0.00031642,"MEAN_MOTION_DDOT":0}]
